NORAD_CAT_ID,OBJECT_NAME,OBJECT_TYPE,EPOCH,MEAN_MOTION,ECCENTRICITY,INCLINATION,RA_OF_ASC_NODE,ARG_OF_PERICENTER,MEAN_ANOMALY,BSTAR,MEAN_MOTION_DOT,MEAN_MOTION_DDOT,TLE_LINE0,TLE_LINE1,TLE_LINE2,SEMIMAJOR_AXIS,PERIOD,APOGEE,PERIGEE,DECAYED
53023.0,STARLINK-4284,PAYLOAD,2023-01-09 00:54:02,15.08833151,0.000148,53.2173,232.0383,72.0862,288.0291,0.00018542,2.664e-05,0.0,0 STARLINK-4284,1 53023U 22076AP  23009.03753365  .00002664  00000-0  18542-3 0  9997,2 53023  53.2173 232.0383 0001480  72.0862 288.0291 15.08833151 28998,6917.901,95.438,540.79,538.742,0.0
53023.0,STARLINK-4284,PAYLOAD,2023-01-09 07:15:35,15.08838709,0.0001433,53.2165,230.8499,77.7555,282.3598,0.00017074,2.43e-05,0.0,0 STARLINK-4284,1 53023U 22076AP  23009.30249127  .00002430  00000-0  17074-3 0  9993,2 53023  53.2165 230.8499 0001433  77.7555 282.3598 15.08838709 28566,6917.884,95.438,540.741,538.758,0.0
53023.0,STARLINK-4284,PAYLOAD,2023-01-09 21:34:03,15.08845784,0.0001509,53.2173,228.1731,74.3145,285.8014,-5.6359e-05,-1.185e-05,0.0,0 STARLINK-4284,1 53023U 22076AP  23009.89865455 -.00001185  00000-0 -56359-4 0  9993,2 53023  53.2173 228.1731 0001509  74.3145 285.8014 15.08845784 28658,6917.863,95.437,540.7719999999998,538.684,0.0
53023.0,STARLINK-4284,PAYLOAD,2023-01-10 07:06:22,15.08834979,0.0001557,53.2176,226.3889,75.1088,285.0076,0.00013414,1.847e-05,0.0,0 STARLINK-4284,1 53023U 22076AP  23010.29609845  .00001847  00000-0  13414-3 0  9995,2 53023  53.2176 226.3889 0001557  75.1088 285.0076 15.08834979 29186,6917.896,95.438,540.8380000000002,538.684,0.0
53023.0,STARLINK-4284,PAYLOAD,2023-01-10 16:38:40,15.08849053,0.000155,53.217,224.6044,75.8806,284.2359,0.00012338,1.677e-05,0.0,0 STARLINK-4284,1 53023U 22076AP  23010.69352825  .00001677  00000-0  12338-3 0  9997,2 53023  53.2170 224.6044 0001550  75.8806 284.2359 15.08849053 29243,6917.853,95.437,540.79,538.645,0.0
53023.0,STARLINK-4284,PAYLOAD,2023-01-10 23:00:12,15.088556099999998,0.0001563,53.2169,223.415,76.0581,284.0585,0.00017709,2.533e-05,0.0,0 STARLINK-4284,1 53023U 22076AP  23010.95848259  .00002533  00000-0  17709-3 0  9996,2 53023  53.2169 223.4150 0001563  76.0581 284.0585 15.08855610 29282,6917.833000000001,95.437,540.779,538.616,0.0
53023.0,STARLINK-4284,PAYLOAD,2023-01-11 16:29:28,15.08834937,0.0001457,53.2174,220.1437,75.1815,284.9339,4.7072e-06,-2.13e-06,0.0,0 STARLINK-4284,1 53023U 22076AP  23011.68713939 -.00000213  00000-0  47072-5 0  9995,2 53023  53.2174 220.1437 0001457  75.1815 284.9339 15.08834937 29399,6917.896,95.438,540.769,538.753,0.0
53023.0,STARLINK-4284,PAYLOAD,2023-01-12 19:31:01,15.08846368,0.0001351999999999,53.216,215.0888,82.9806,277.134,-0.00018939,-3.301e-05,0.0,0 STARLINK-4284,1 53023U 22076AP  23012.81321123 -.00003301  00000-0 -18939-3 0  9991,2 53023  53.2160 215.0888 0001352  82.9806 277.1340 15.08846368 29563,6917.861,95.437,540.661,538.7909999999998,0.0
53023.0,STARLINK-4284,PAYLOAD,2023-01-13 13:00:16,15.08838311,0.0001541,53.2151,211.8191,83.0507,277.0661,0.00022744,3.333e-05,0.0,0 STARLINK-4284,1 53023U 22076AP  23013.54185953  .00003333  00000-0  22744-3 0  9993,2 53023  53.2151 211.8191 0001541  83.0507 277.0661 15.08838311 29670,6917.886,95.438,540.817,538.685,0.0
53023.0,STARLINK-4284,PAYLOAD,2023-01-13 19:21:49,15.08840551,0.0001520999999999,53.2154,210.6294,82.339,277.7775,0.00021236,3.093e-05,0.0,0 STARLINK-4284,1 53023U 22076AP  23013.80681925  .00003093  00000-0  21236-3 0  9990,2 53023  53.2154 210.6294 0001521  82.3390 277.7775 15.08840551 29249,6917.879,95.438,540.7959999999999,538.691,0.0
53023.0,STARLINK-4284,PAYLOAD,2023-01-14 06:29:31,15.08830508,0.0001463,53.2153,208.5475,82.0967,278.0191,0.0005084,7.809999999999999e-05,0.0,0 STARLINK-4284,1 53023U 22076AP  23014.27050477  .00007810  00000-0  50840-3 0  9998,2 53023  53.2153 208.5475 0001463  82.0967 278.0191 15.08830508 29783,6917.909000000001,95.438,540.786,538.762,0.0
53023.0,STARLINK-4284,PAYLOAD,2023-01-15 12:41:50,15.08840126,0.0001579,53.2153,202.8967,90.7859,269.3314,6.743600000000001e-05,7.85e-06,0.0,0 STARLINK-4284,1 53023U 22076AP  23015.52906009  .00000785  00000-0  67436-4 0  9992,2 53023  53.2153 202.8967 0001579  90.7859 269.3314 15.08840126 29978,6917.88,95.438,540.837,538.653,0.0
53023.0,STARLINK-4284,PAYLOAD,2023-01-15 20:38:45,15.08847615,0.0001448,53.2164,201.4099,91.5417,268.5741,0.00011231,1.5e-05,0.0,0 STARLINK-4284,1 53023U 22076AP  23015.86025449  .00001500  00000-0  11231-3 0  9996,2 53023  53.2164 201.4099 0001448  91.5417 268.5741 15.08847615 29554,6917.857,95.437,540.724,538.72,0.0
53023.0,STARLINK-4284,PAYLOAD,2023-01-16 12:32:37,15.08838162,0.0001424,53.215,198.4369,91.7942,268.3213,4.8961e-05,4.91e-06,0.0,0 STARLINK-4284,1 53023U 22076AP  23016.52266094  .00000491  00000-0  48961-4 0  9992,2 53023  53.2150 198.4369 0001424  91.7942 268.3213 15.08838162 30127,6917.886,95.438,540.736,538.766,0.0
53023.0,STARLINK-4284,PAYLOAD,2023-01-16 22:04:56,15.08841479,0.0001421,53.2154,196.6527,92.9219,267.1935,7.3569e-05,8.83e-06,0.0,0 STARLINK-4284,1 53023U 22076AP  23016.92009916  .00000883  00000-0  73569-4 0  9991,2 53023  53.2154 196.6527 0001421  92.9219 267.1935 15.08841479 29710,6917.876,95.437,540.724,538.758,0.0
53023.0,STARLINK-4284,PAYLOAD,2023-01-17 12:23:25,15.08833369,0.0001335,53.2168,193.9763,93.8736,266.2409,2.5662e-06,-2.47e-06,0.0,0 STARLINK-4284,1 53023U 22076AP  23017.51626815 -.00000247  00000-0  25662-5 0  9997,2 53023  53.2168 193.9763 0001335  93.8736 266.2409 15.08833369 30273,6917.901,95.438,540.689,538.842,0.0
53023.0,STARLINK-4284,PAYLOAD,2023-01-17 20:20:21,15.08837087,0.0001663,53.217,192.4898,100.8481,259.2699,3.9227e-05,3.36e-06,0.0,0 STARLINK-4284,1 53023U 22076AP  23017.84746552  .00000336  00000-0  39227-4 0  9993,2 53023  53.2170 192.4898 0001663 100.8481 259.2699 15.08837087 29855,6917.889,95.438,540.905,538.604,0.0
53023.0,STARLINK-4284,PAYLOAD,2023-01-18 12:14:12,15.0883452,0.0001344,53.2177,189.516,93.1852,266.9294,0.00016923,2.406e-05,0.0,0 STARLINK-4284,1 53023U 22076AP  23018.50986567  .00002406  00000-0  16923-3 0  9996,2 53023  53.2177 189.5160 0001344  93.1852 266.9294 15.08834520 29959,6917.897,95.438,540.692,538.832,0.0
53023.0,STARLINK-4284,PAYLOAD,2023-01-18 15:24:58,15.08835034,0.0001389,53.2178,188.9214,93.9707,266.1444,0.00023298,3.421e-05,0.0,0 STARLINK-4284,1 53023U 22076AP  23018.64234418  .00003421  00000-0  23298-3 0  9993,2 53023  53.2178 188.9214 0001389  93.9707 266.1444 15.08835034 30445,6917.896,95.438,540.721,538.8,0.0
53023.0,STARLINK-4284,PAYLOAD,2023-01-18 18:35:44,15.08844678,0.0001344,53.2176,188.3267,93.417,266.6976,0.0001356,1.871e-05,0.0,0 STARLINK-4284,1 53023U 22076AP  23018.77482083  .00001871  00000-0  13560-3 0  9998,2 53023  53.2176 188.3267 0001344  93.4170 266.6976 15.08844678 29992,6917.866,95.437,540.661,538.8009999999999,0.0
53023.0,STARLINK-4284,PAYLOAD,2023-01-19 04:08:03,15.08842684,0.0001298,53.2177,186.5423,92.5035,267.6106,9.0795e-05,1.158e-05,0.0,0 STARLINK-4284,1 53023U 22076AP  23019.17226358  .00001158  00000-0  90795-4 0  9998,2 53023  53.2177 186.5423 0001298  92.5035 267.6106 15.08842684 30055,6917.871999999999,95.437,540.635,538.839,0.0
53023.0,STARLINK-4284,PAYLOAD,2023-01-19 13:40:22,15.08833429,0.0001264999999999,53.2175,184.7583,93.3648,266.7488,9.8627e-05,1.282e-05,0.0,0 STARLINK-4284,1 53023U 22076AP  23019.56971050  .00001282  00000-0  98627-4 0  9997,2 53023  53.2175 184.7583 0001265  93.3648 266.7488 15.08833429 30581,6917.9,95.438,540.641,538.89,0.0
53023.0,STARLINK-4284,PAYLOAD,2023-01-20 03:58:50,15.08840328,0.000122,53.2177,182.0816,88.6125,271.5007,9.5016e-05,1.225e-05,0.0,0 STARLINK-4284,1 53023U 22076AP  23020.16586649  .00001225  00000-0  95016-4 0  9997,2 53023  53.2177 182.0816 0001220  88.6125 271.5007 15.08840328 30678,6917.879,95.438,540.5880000000001,538.9,0.0
53023.0,STARLINK-4284,PAYLOAD,2023-01-20 19:52:41,15.08854764,0.0001347,53.2179,179.107,98.8927,261.2218,8.7505e-05,1.106e-05,0.0,0 STARLINK-4284,1 53023U 22076AP  23020.82825691  .00001106  00000-0  87505-4 0  9995,2 53023  53.2179 179.1070 0001347  98.8927 261.2218 15.08854764 30772,6917.835,95.437,540.632,538.768,0.0
53023.0,STARLINK-4284,PAYLOAD,2023-01-21 05:25:00,15.08842583,0.0001302,53.217,177.3254,92.6258,267.4883,7.0213e-05,8.3e-06,0.0,0 STARLINK-4284,1 53023U 22076AP  23021.22570445  .00000830  00000-0  70213-4 0  9995,2 53023  53.2170 177.3254 0001302  92.6258 267.4883 15.08842583 30836,6917.871999999999,95.437,540.638,538.837,0.0
53023.0,STARLINK-4284,PAYLOAD,2023-01-22 13:12:43,15.08841574,0.0001234,53.2176,171.3762,93.7503,266.3631,7.3101e-05,8.76e-06,0.0,0 STARLINK-4284,1 53023U 22076AP  23022.55050518  .00000876  00000-0  73101-4 0  9995,2 53023  53.2176 171.3762 0001234  93.7503 266.3631 15.08841574 31030,6917.876,95.437,540.594,538.887,0.0
53023.0,STARLINK-4284,PAYLOAD,2023-01-23 11:28:07,15.08837022,0.0001345,53.2173,167.2149,85.5906,274.524,8.3445e-05,1.04e-05,0.0,0 STARLINK-4284,1 53023U 22076AP  23023.47786853  .00001040  00000-0  83445-4 0  9991,2 53023  53.2173 167.2149 0001345  85.5906 274.5240 15.08837022 31174,6917.889,95.438,540.685,538.8240000000001,0.0
53023.0,STARLINK-4284,PAYLOAD,2023-01-24 12:54:18,15.08834409,0.0001257,53.2176,162.4579,81.676,278.4375,8.484e-05,1.062e-05,0.0,0 STARLINK-4284,1 53023U 22076AP  23024.53771192  .00001062  00000-0  84840-4 0  9993,2 53023  53.2176 162.4579 0001257  81.6760 278.4375 15.08834409 31334,6917.897,95.438,540.632,538.893,0.0
53023.0,STARLINK-4284,PAYLOAD,2023-01-25 14:20:28,15.08834226,0.0001144,53.2172,157.7008,89.6528,270.4595,3.5227e-05,2.73e-06,0.0,0 STARLINK-4284,1 53023U 22076AP  23025.59755659  .00000273  00000-0  35227-4 0  9998,2 53023  53.2172 157.7008 0001144  89.6528 270.4595 15.08834226 31028,6917.898,95.438,540.554,538.972,0.0
